KUIPER-00133            
1 65764U 25217C   26014.95245258 -.00004671  00000+0 -58415-3 0  9993
2 65764  51.9046 290.7307 0011341 140.1401 220.0396 14.79861226 16784
KUIPER-00139            
1 65765U 25217D   26015.74740567  .00004054  00000+0  32422-3 0  9998
2 65765  51.8864 276.2326 0008483 136.8060 223.3578 15.02224670 17050
KUIPER-00142            
1 65766U 25217E   26016.00002315 -.00035642  00000+0 -44581-2 0  9998
2 65766  51.8989 268.6231 0001214 117.1172 130.5761 14.81879259  4830
KUIPER-00145            
1 65767U 25217F   26016.00002315 -.00002807  00000+0 -33964-3 0  9990
2 65767  51.8995 271.1048 0001618  41.1799 236.8805 14.79888503  5572
KUIPER-00147            
1 65768U 25217G   26016.00002315 -.00012923  00000+0 -16727-2 0  9998
2 65768  51.8983 273.6038 0001296 110.9281   1.8483 14.79851933  5365
KUIPER-00148            
1 65769U 25217H   26015.18372920  .00005954  00000+0  38713-3 0  9993
2 65769  51.8779 272.6142 0010194 160.6778 199.4585 15.09249181 17050
KUIPER-00150            
1 65770U 25217J   26015.96817714  .00002248  00000+0  32382-3 0  9995
2 65770  51.9034 283.7352 0000656  93.8336 266.2701 14.79931059 16962
KUIPER-00151            
1 65771U 25217K   26015.70613579  .00001463  00000+0  22113-3 0  9990
2 65771  51.9022 277.3931 0000926  77.0997 283.0069 14.79872311 17037
